[Satellite]
VERSION=1.1
NAME=HODOYOSHI-3
NICKNAME=HODOYOSHI-3
TLE1=1 40015U 14033F   15055.40867621  .00000865  00000-0  12735-3 0  9991
TLE2=2 40015  97.9606 312.0813 0038768 123.1500 237.3394 14.77413460 36851
